IRIDIUM 36              
1 24967U 97056C   24223.16329344  .00001076  00000+0  35695-3 0  9994
2 24967  86.3976 303.6357 0002057  91.8880 268.2553 14.36937423407547
IRIDIUM 39              
1 25042U 97069D   24222.83919298  .00002425  00000+0  64523-3 0  9990
2 25042  86.3961 344.5884 0016126 265.0529  94.8833 14.48144166403886
IRIDIUM 38              
1 25043U 97069E   24222.94513945  .00001675  00000+0  55452-3 0  9999
2 25043  86.3995   4.0706 0003559  68.3919 291.7658 14.37390270401493
IRIDIUM 42              
1 25077U 97077A   24222.85274807  .00001511  00000+0  51696-3 0  9991
2 25077  86.3992   9.8920 0002673  84.2481 275.9021 14.35677549396514
IRIDIUM 44              
1 25078U 97077B   24222.87852221  .00001519  00000+0  48108-3 0  9998
2 25078  86.3998 352.6506 0001948  39.1605 320.9734 14.39527075398933
IRIDIUM 45              
1 25104U 97082A   24223.03794658  .00037823  00000+0  20050-2 0  9994
2 25104  86.3759 196.9446 0155721  44.4179 316.9420 15.05268505405204
IRIDIUM 24              
1 25105U 97082B   24222.90029278  .00001762  00000+0  53844-3 0  9990
2 25105  86.3915 212.1349 0012754  35.9068 324.2986 14.41317810398362
IRIDIUM 51              
1 25262U 98018A   24223.03223571  .00039503  00000+0  17161-2 0  9996
2 25262  86.3959 206.5853 0136407 345.4730  14.2602 15.14018541399775
